[{"OBJECT_NAME":"STARLINK-31147","OBJECT_ID":"2023-211Q","EPOCH":"2026-03-09T02:31:43.686336","MEAN_MOTION":15.27656472,"ECCENTRICITY":0.00016392,"INCLINATION":43.0048,"RA_OF_ASC_NODE":88.718,"ARG_OF_PERICENTER":311.9751,"MEAN_ANOMALY":48.0961,"EPHEMERIS_TYPE":0,"CLASSIFICATION_TYPE":"U","NORAD_CAT_ID":58681,"ELEMENT_SET_NO":999,"REV_AT_EPOCH":12237,"BSTAR":-0.00063302949,"MEAN_MOTION_DOT":-0.00017682,"MEAN_MOTION_DDOT":0},{"OBJECT_NAME":"HERMES-5","OBJECT_ID":"2025-052BQ","EPOCH":"2026-03-09T22:33:51.245280","MEAN_MOTION":15.26210393,"ECCENTRICITY":0.0006071,"INCLINATION":97.4082,"RA_OF_ASC_NODE":324.1247,"ARG_OF_PERICENTER":124.4334,"MEAN_ANOMALY":235.7479,"EPHEMERIS_TYPE":0,"CLASSIFICATION_TYPE":"U","NORAD_CAT_ID":63834,"ELEMENT_SET_NO":999,"REV_AT_EPOCH":5480,"BSTAR":0.00068450239,"MEAN_MOTION_DOT":0.00017673,"MEAN_MOTION_DDOT":0}]
